STARLINK-30956          
1 58481U 23186J   26007.72464747 -.00000653  00000+0 -33290-4 0  9998
2 58481  43.0038  14.0496 0001065 272.0080  88.0640 15.02538258116969
STARLINK-30997          
1 58482U 23186K   26007.79138028  .00006773  00000+0  51579-3 0  9992
2 58482  43.0034  38.0827 0001413 281.1451  78.9233 15.02551507116698
STARLINK-30994          
1 58483U 23186L   26007.35377472 -.00001524  00000+0 -45874-4 0  9996
2 58483  42.9978 246.5599 0000498 277.7797  82.2998 15.27574430118428
STARLINK-30991          
1 58484U 23186M   26007.77139067  .00001124  00000+0  98284-4 0  9996
2 58484  43.0049  37.9571 0001243 265.9177  94.1523 15.02532601116681
STARLINK-30979          
1 58485U 23186N   26007.14990521 -.00000644  00000+0 -32633-4 0  9992
2 58485  43.0029  41.8991 0000602 273.0383  87.0391 15.02533145116584
STARLINK-31005          
1 58486U 23186P   26007.81134643 -.00000374  00000+0 -12640-4 0  9998
2 58486  43.0050  38.2602 0001331 278.4628  81.6063 15.02542760116689
STARLINK-30987          
1 58487U 23186Q   26007.14324403 -.00000724  00000+0 -38513-4 0  9996
2 58487  43.0035  41.8473 0001061 271.2210  88.8510 15.02534701116588
STARLINK-31000          
1 58488U 23186R   26007.80469341 -.00000422  00000+0 -16188-4 0  9990
2 58488  43.0028  38.2092 0001063 268.0102  92.0619 15.02535161116683
STARLINK-30993          
1 58489U 23186S   26007.80135900 -.00002984  00000+0 -20597-3 0  9995
2 58489  43.0063  38.1858 0001446 269.5267  90.5410 15.02531852116680
STARLINK-30978          
1 58490U 23186T   26007.79803637 -.00002451  00000+0 -16646-3 0  9993
2 58490  43.0038  38.1595 0001052 278.8194  81.2529 15.02537181116686
STARLINK-30953          
1 58491U 23186U   26007.96826688 -.00002911  00000+0 -96238-4 0  9991
2 58491  43.0005 250.4206 0001242 244.7943 115.2780 15.27596154118607
STARLINK-30986          
1 58492U 23186V   26007.45565508 -.00000641  00000+0 -32354-4 0  9994
2 58492  43.0039  39.8917 0000946 273.4114  86.6620 15.02534541116632
STARLINK-30985          
1 58493U 23186W   26007.78469669 -.00009680  00000+0 -70161-3 0  9991
2 58493  43.0044  38.0603 0001543 256.7353 103.3318 15.02583397116684
STARLINK-30981          
1 58494U 23186X   26007.78138520 -.00000541  00000+0 -25019-4 0  9991
2 58494  43.0042  38.0336 0001036 278.4190  81.6534 15.02535263116680
STARLINK-31002          
1 58495U 23186Y   26007.77805168 -.00000006  00000+0  14608-4 0  9997
2 58495  43.0047  38.0104 0001249 270.5647  89.5052 15.02537327116859
XINGCHI-1 02A           
1 58496U 23187A   26007.93125823  .00002053  00000+0  25519-3 0  9995
2 58496  97.9387  91.7874 0010677 311.9626  48.0678 14.83627106113356
MISRSAT-2               
1 58497U 23187B   26007.94882925  .00001664  00000+0  21269-3 0  9995
2 58497  97.9402  91.1085 0010083 313.0862  46.9507 14.82719627113299
XINGCHI-1 02B           
1 58498U 23187C   26007.90824818  .00002050  00000+0  24551-3 0  9996
2 58498  97.9412  92.5541 0009670 309.1480  50.8875 14.85188089113382
DOORY-SAT               
1 58500U 23188A   26007.95916454  .00001458  00000+0  21703-3 0  9991
2 58500  46.9828 358.9977 0008949 349.5274  10.5432 14.80062849113258
2023-189A               
1 58502U 23189A   26007.95342854  .00004673  00000+0  15512-3 0  9994
2 58502  97.4478  25.2738 0013182 107.7354 252.5327 15.31655353116674
2023-189B               
1 58503U 23189B   26008.01209904  .00049150  00000+0  53507-3 0  9996
2 58503  97.4236  37.2730 0007346  74.0414 286.1653 15.63259768117514
CHUANGXIN 19 (CX-19)    
1 58505U 23190A   26007.95512843  .00000037  00000+0  40723-4 0  9999
2 58505  86.5018  28.0024 0001846 105.1066 255.0281 13.39536417103242
STARLINK-31026          
1 58508U 23191A   26007.89499518 -.00004120  00000+0 -28998-3 0  9997
2 58508  43.0009  77.4011 0000858 278.9688  81.1058 15.02548154116289
STARLINK-31020          
1 58509U 23191B   26007.49295193  .00032937  00000+0  24504-2 0  9990
2 58509  43.0029  80.3961 0000995 315.0200  45.0562 15.02405040116212
STARLINK-30989          
1 58510U 23191C   26007.90695984 -.00000400  00000+0 -14562-4 0  9997
2 58510  43.0018  76.6389 0001245 271.3410  88.7290 15.02533162116321
STARLINK-30968          
1 58511U 23191D   26007.90363329  .00000491  00000+0  51464-4 0  9993
2 58511  43.0050  76.6141 0001348 312.6386  47.4342 15.02529952116297
STARLINK-30982          
1 58512U 23191E   26007.90030084 -.00002174  00000+0 -14592-3 0  9995
2 58512  43.0019  76.5870 0000988 268.6632  91.4097 15.02526802116291
STARLINK-30998          
1 58513U 23191F   26007.49809725  .00004007  00000+0  31152-3 0  9992
2 58513  43.0023  78.7251 0001403 279.0097  81.0586 15.02538073116266
STARLINK-30983          
1 58514U 23191G   26007.58777504 -.00000819  00000+0 -45568-4 0  9998
2 58514  43.0016  77.6837 0001119 265.9781  94.0933 15.02531595115907
STARLINK-31017          
1 58515U 23191H   26007.84460340 -.00000107  00000+0  56369-5 0  9996
2 58515  43.0007 214.7773 0001330 257.9963 102.0740 15.27575024118876
STARLINK-31028          
1 58516U 23191J   26007.62440050  .00002817  00000+0  22347-3 0  9995
2 58516  43.0025  77.9535 0001328 285.8457  74.2239 15.02541721116250
STARLINK-31011          
1 58517U 23191K   26007.89364312 -.00001436  00000+0 -91222-4 0  9998
2 58517  43.0038  76.5341 0001114 274.9982  85.0733 15.02541399116294
STARLINK-31021          
1 58518U 23191L   26007.91016606 -.00001465  00000+0 -93358-4 0  9996
2 58518  43.0022  75.7849 0000663 281.5508  78.5260 15.02542709116308
STARLINK-31010          
1 58519U 23191M   26007.91351961 -.00001294  00000+0 -80786-4 0  9994
2 58519  43.0038  75.7758 0000446  20.1501 339.9358 15.02522519116303
STARLINK-31003          
1 58520U 23191N   26007.62102344 -.00001259  00000+0 -78015-4 0  9996
2 58520  43.0092  77.9351 0002885 283.3104  76.7417 15.02589420116259
STARLINK-31015          
1 58521U 23191P   26007.55125812 -.00000507  00000+0 -22449-4 0  9999
2 58521  43.0033  78.2716 0001100 273.2628  86.8089 15.02539040116218
STARLINK-31023          
1 58522U 23191Q   26007.88031679  .00000229  00000+0  32052-4 0  9993
2 58522  43.0027  76.4339 0001306 273.6775  86.3918 15.02536090116294
STARLINK-30932          
1 58523U 23191R   26007.87698802 -.00000319  00000+0 -85376-5 0  9990
2 58523  43.0034  76.4111 0001233 270.0629  90.0072 15.02535654116242
STARLINK-30992          
1 58524U 23191S   26007.87366264 -.00003358  00000+0 -23353-3 0  9996
2 58524  43.0038  76.3858 0001290 279.7393  80.3303 15.02545786116292
STARLINK-30948          
1 58525U 23191T   26007.87032710 -.00000154  00000+0  37107-5 0  9997
2 58525  43.0034  76.3602 0001334 273.6261  86.4429 15.02536988116292
STARLINK-31013          
1 58526U 23191U   26007.46437836  .00011663  00000+0  86273-3 0  9993
2 58526  43.0036  78.4730 0002165 291.5658  68.4954 15.03158974116235
STARLINK-31001          
1 58527U 23191V   26007.58442440 -.00003146  00000+0 -21790-3 0  9996
2 58527  43.0054  77.5621 0001345 254.8903 105.1790 15.02534025116252
STARLINK-31004          
1 58528U 23191W   26007.86367536 -.00000648  00000+0 -32872-4 0  9998
2 58528  43.0045  76.3059 0001411 269.8848  90.1833 15.02529336116297
STARLINK-30988          
1 58529U 23191X   26007.59443581 -.00001031  00000+0 -61263-4 0  9997
2 58529  43.0026  77.7283 0001305 266.4120  93.6573 15.02528017116259
STARLINK-31009          
1 58530U 23191Y   26007.45814081 -.00000485  00000+0 -20863-4 0  9994
2 58530  43.0021  78.4266 0001207 275.6130  84.4575 15.02542359116254
STARLINK-31012          
1 58531U 23192A   26007.92526918  .00001174  00000+0  51802-4 0  9998
2 58531  53.1633 344.8747 0001646  87.0576 273.0613 15.30181755116682
STARLINK-31035          
1 58532U 23192B   26007.31576717  .00000696  00000+0  35626-4 0  9998
2 58532  53.1611 334.6638 0001057  90.1943 269.9179 15.30200190116770
STARLINK-31036          
1 58533U 23192C   26007.95692121 -.00005366  00000+0 -16902-3 0  9993
2 58533  53.1615 345.1020 0001775  79.9854 280.1347 15.30225252116688
STARLINK-30936          
1 58534U 23192D   26007.60407498  .00009387  00000+0  32857-3 0  9999
2 58534  53.1611 336.5118 0001414 105.6483 254.4674 15.30209646116778
STARLINK-31032          
1 58535U 23192E   26007.66716110 -.00005598  00000+0 -17690-3 0  9990
2 58535  53.1621 346.1068 0001677  92.5071 267.6121 15.30218211116646
STARLINK-31037          
1 58536U 23192F   26007.67139445  .00003192  00000+0  11985-3 0  9999
2 58536  53.1617 346.1556 0001487  64.9514 295.1641 15.30200332116646
STARLINK-31041          
1 58537U 23192G   26007.40906622  .00002826  00000+0  10744-3 0  9995
2 58537  53.1624 347.3402 0001812  86.4633 273.6575 15.30221431116607
STARLINK-31014          
1 58538U 23192H   26007.35431641  .00000913  00000+0  42950-4 0  9994
2 58538  53.1610 347.7113 0001166  79.7735 280.3397 15.30198025116593
STARLINK-31055          
1 58539U 23192J   26007.35748690  .00000109  00000+0  15812-4 0  9994
2 58539  53.1614 347.7277 0001095  73.7779 286.3342 15.30191835116590
STARLINK-31019          
1 58540U 23192K   26007.34798699  .00017988  00000+0  61786-3 0  9992
2 58540  53.1614 347.6693 0001177  91.4328 268.6808 15.30206506116593
STARLINK-31045          
1 58541U 23192L   26007.88121785  .00003067  00000+0  11565-3 0  9991
2 58541  53.1595  62.0341 0001282  96.0651 264.0496 15.30193634115585
STARLINK-31030          
1 58542U 23192M   26007.29533244  .00000230  00000+0  19887-4 0  9999
2 58542  53.1615 348.0506 0001171  80.9210 279.1923 15.30198091116584
STARLINK-31049          
1 58543U 23192N   26007.36381833  .00003310  00000+0  12390-3 0  9996
2 58543  53.1621 347.7671 0000798  96.0053 264.1039 15.30181578116593
STARLINK-31048          
1 58544U 23192P   26007.45538926  .00000175  00000+0  18046-4 0  9995
2 58544  53.1614 346.8775 0001193  99.8873 260.2262 15.30200153116611
